format  = 'OEF2.0'       ! file format
rectype = 'ML'           ! record type (1L/ML)
refsys  = ECLM J2000     ! default reference system
END_OF_HEADER
99942
! Keplerian elements: a, e, i, long. node, arg. peric., mean anomaly
 KEP   9.2256302791219935E-01  1.9146455385501043E-01   3.3368783447614 204.0561457413002 126.6782196063852  2.6508744579861860E+02
 MJD     58367.925505676 TDT
 MAG  18.893  0.150
! Non-gravitational parameters: model used, number of model parameters, dimension, list of solve for parameters to be currently determined
 LSP   1  2    7    2
! Vector of dynamical parameters
! Area-to-mass ratio [m^2/t], Yarkovsky parameter [1E-10 au/day^2]
 NGR   0.00000000000000E+00 -2.90010329254113E-04
! PERIHELION   7.4592490936986255E-01
! APHELION   1.0992011464545359E+00
! ANODE  -7.1293449583562216E-04
! DNODE  -1.9924821320555988E-01
! MOID   2.1116782614875908E-04
! PERIOD   3.2366258322570138E+02
! PHA T
! VINFTY     5.4755635798281
! U_PAR 0.0
! ORB_TYPE Aten  
! SNR A2   124.83
! da/dt [1E-4 au/My] -1.3309877E+01  +/-   1.0662253E-01
! RMS    6.66701E-11   1.40376E-09   1.54870E-07   7.59534E-06   8.15737E-06   1.23177E-06   2.32321E-06
 COV   4.444896608261412E-21 -8.031333349502713E-20 -1.421045164148131E-19
 COV  -8.497130390249893E-17  4.291238639995037E-17  4.191608158271438E-17
 COV   8.007540808825035E-17  1.970556016045908E-18  7.084102598002439E-17
 COV  -2.079941647598611E-15  3.265827298723209E-15 -1.374949826658259E-15
 COV  -1.893524491519478E-15  2.398470691840262E-14 -1.115060718846450E-12
 COV   1.218254089510326E-12 -1.574446100330549E-13 -2.217811358615570E-13
 COV   5.768915385550264E-11 -6.166722700555997E-11  6.596195794844847E-12
 COV   9.633959601134019E-12  6.654268459862028E-11 -7.738080955447234E-12
 COV  -1.121892016137189E-11  1.517266519390896E-12  2.140509748709053E-12
 COV   5.397303230031556E-12
 COR   1.000000000000000E+00 -8.581484611445023E-01 -1.376289641964838E-02
 COR  -1.678009311307068E-01  7.890448253369041E-02  5.104096867092197E-01
 COR   5.169873538531149E-01  1.000000000000000E+00  3.258541391493496E-01
 COR  -1.950786197355492E-01  2.851994367502744E-01 -7.951728089233389E-01
 COR  -5.806148312753411E-01  1.000000000000000E+00 -9.479473663422240E-01
 COR   9.643185273749250E-01 -8.253338400756000E-01 -6.164090216228699E-01
 COR   1.000000000000000E+00 -9.953072701302045E-01  7.050428561875786E-01
 COR   5.459706882564840E-01  9.999999999999999E-01 -7.701089534820358E-01
 COR  -5.919874355620914E-01  1.000000000000000E+00  7.479935685891862E-01
 COR   1.000000000000000E+00
